{
    "links": {
        "self": "http://www.neowsapp.com/rest/v1/neo/3512697?api_key=iIulBulltgU6a56xZRHN4H3l9WmuAYTsLGpBGhQ2"
    },
    "id": "3512697",
    "neo_reference_id": "3512697",
    "name": "(2010 FQ9)",
    "designation": "2010 FQ9",
    "nasa_jpl_url": "http://ssd.jpl.nasa.gov/sbdb.cgi?sstr=3512697",
    "absolute_magnitude_h": 22.9,
    "estimated_diameter": {
        "kilometers": {
            "estimated_diameter_min": 0.0699125232,
            "estimated_diameter_max": 0.1563291544
        },
        "meters": {
            "estimated_diameter_min": 69.9125232246,
            "estimated_diameter_max": 156.3291544087
        },
        "miles": {
            "estimated_diameter_min": 0.0434416145,
            "estimated_diameter_max": 0.097138403
        },
        "feet": {
            "estimated_diameter_min": 229.3718026961,
            "estimated_diameter_max": 512.8909429502
        }
    },
    "is_potentially_hazardous_asteroid": false,
    "close_approach_data": [
        {
            "close_approach_date": "2009-12-01",
            "close_approach_date_full": "2009-Dec-01 06:41",
            "epoch_date_close_approach": 1259649660000,
            "relative_velocity": {
                "kilometers_per_second": "9.7157791053",
                "kilometers_per_hour": "34976.8047791013",
                "miles_per_hour": "21733.2262806588"
            },
            "miss_distance": {
                "astronomical": "0.0698798762",
                "lunar": "27.1832718418",
                "kilometers": "10453880.635383694",
                "miles": "6495740.2153512172"
            },
            "orbiting_body": "Mars"
        },
        {
            "close_approach_date": "2010-03-17",
            "close_approach_date_full": "2010-Mar-17 15:42",
            "epoch_date_close_approach": 1268840520000,
            "relative_velocity": {
                "kilometers_per_second": "1.7738432827",
                "kilometers_per_hour": "6385.8358176644",
                "miles_per_hour": "3967.9100390371"
            },
            "miss_distance": {
                "astronomical": "0.2478061789",
                "lunar": "96.3966035921",
                "kilometers": "37071276.536278943",
                "miles": "23035023.0914296934"
            },
            "orbiting_body": "Earth"
        }
    ],
    "orbital_data": {
        "orbit_id": "12",
        "orbit_determination_date": "2017-04-06 08:58:03",
        "first_observation_date": "2010-03-20",
        "last_observation_date": "2010-04-15",
        "data_arc_in_days": 26,
        "observations_used": 32,
        "orbit_uncertainty": "8",
        "minimum_orbit_intersection": ".244155",
        "jupiter_tisserand_invariant": "3.693",
        "epoch_osculation": "2455284.5",
        "eccentricity": ".3951649380363668",
        "semi_major_axis": "2.048152298844814",
        "inclination": "1.462437479726389",
        "ascending_node_longitude": "42.4300772423898",
        "orbital_period": "1070.635890009904",
        "perihelion_distance": "1.238794322582761",
        "perihelion_argument": "134.2294193467305",
        "aphelion_distance": "2.857510275106868",
        "perihelion_time": "2455275.364734333162",
        "mean_anomaly": "3.071721834424268",
        "mean_motion": ".3362487689411102",
        "equinox": "J2000",
        "orbit_class": {
            "orbit_class_type": "AMO",
            "orbit_class_description": "Near-Earth asteroid orbits similar to that of 1221 Amor",
            "orbit_class_range": "1.017 AU < q (perihelion) < 1.3 AU"
        }
    },
    "is_sentry_object": false
}